[{"OBJECT_NAME":"STARLINK-6320","OBJECT_ID":"2023-099J","EPOCH":"2026-03-21T14:00:01.000224","MEAN_MOTION":15.26749224,"ECCENTRICITY":0.00013833,"INCLINATION":43,"RA_OF_ASC_NODE":181.8205,"ARG_OF_PERICENTER":282.8591,"MEAN_ANOMALY":135.3986,"EPHEMERIS_TYPE":0,"CLASSIFICATION_TYPE":"U","NORAD_CAT_ID":57336,"ELEMENT_SET_NO":999,"REV_AT_EPOCH":567,"BSTAR":0.00044369355,"MEAN_MOTION_DOT":0.00011664,"MEAN_MOTION_DDOT":0},{"OBJECT_NAME":"STARLINK-6322","OBJECT_ID":"2023-099K","EPOCH":"2026-03-21T14:00:01.000224","MEAN_MOTION":15.11064,"ECCENTRICITY":0.00014352,"INCLINATION":43.0001,"RA_OF_ASC_NODE":184.2503,"ARG_OF_PERICENTER":282.2958,"MEAN_ANOMALY":193.2815,"EPHEMERIS_TYPE":0,"CLASSIFICATION_TYPE":"U","NORAD_CAT_ID":57337,"ELEMENT_SET_NO":999,"REV_AT_EPOCH":578,"BSTAR":0.0037469788,"MEAN_MOTION_DOT":0.00064144,"MEAN_MOTION_DDOT":0},{"OBJECT_NAME":"STARLINK-6374","OBJECT_ID":"2023-099L","EPOCH":"2026-03-21T12:00:00.999648","MEAN_MOTION":15.11017168,"ECCENTRICITY":0.00018388,"INCLINATION":43.0002,"RA_OF_ASC_NODE":184.619,"ARG_OF_PERICENTER":277.1526,"MEAN_ANOMALY":138.8717,"EPHEMERIS_TYPE":0,"CLASSIFICATION_TYPE":"U","NORAD_CAT_ID":57338,"ELEMENT_SET_NO":999,"REV_AT_EPOCH":581,"BSTAR":0.00044489355,"MEAN_MOTION_DOT":7.351e-5,"MEAN_MOTION_DDOT":0},{"OBJECT_NAME":"STARLINK-6332","OBJECT_ID":"2023-099M","EPOCH":"2026-03-21T12:00:00.999648","MEAN_MOTION":15.11653046,"ECCENTRICITY":0.00017245,"INCLINATION":43,"RA_OF_ASC_NODE":184.6577,"ARG_OF_PERICENTER":264.1002,"MEAN_ANOMALY":137.888,"EPHEMERIS_TYPE":0,"CLASSIFICATION_TYPE":"U","NORAD_CAT_ID":57339,"ELEMENT_SET_NO":999,"REV_AT_EPOCH":581,"BSTAR":0.00069487753,"MEAN_MOTION_DOT":0.00011822,"MEAN_MOTION_DDOT":0},{"OBJECT_NAME":"STARLINK-6321","OBJECT_ID":"2023-099N","EPOCH":"2026-03-21T14:00:01.000224","MEAN_MOTION":15.08026621,"ECCENTRICITY":0.0001092,"INCLINATION":43.0011,"RA_OF_ASC_NODE":184.1551,"ARG_OF_PERICENTER":306.9348,"MEAN_ANOMALY":206.3044,"EPHEMERIS_TYPE":0,"CLASSIFICATION_TYPE":"U","NORAD_CAT_ID":57340,"ELEMENT_SET_NO":999,"REV_AT_EPOCH":578,"BSTAR":0.0023547131,"MEAN_MOTION_DOT":0.0003685,"MEAN_MOTION_DDOT":0},{"OBJECT_NAME":"STARLINK-6377","OBJECT_ID":"2023-099P","EPOCH":"2026-03-21T14:00:01.000224","MEAN_MOTION":15.10726998,"ECCENTRICITY":0.00012888,"INCLINATION":43.0006,"RA_OF_ASC_NODE":184.0878,"ARG_OF_PERICENTER":314.1084,"MEAN_ANOMALY":226.3923,"EPHEMERIS_TYPE":0,"CLASSIFICATION_TYPE":"U","NORAD_CAT_ID":57341,"ELEMENT_SET_NO":999,"REV_AT_EPOCH":568,"BSTAR":0.0022538953,"MEAN_MOTION_DOT":0.00037996,"MEAN_MOTION_DDOT":0},{"OBJECT_NAME":"STARLINK-6375","OBJECT_ID":"2023-099Q","EPOCH":"2026-03-21T14:00:01.000224","MEAN_MOTION":15.26703087,"ECCENTRICITY":0.00017619,"INCLINATION":43,"RA_OF_ASC_NODE":181.7262,"ARG_OF_PERICENTER":275.3407,"MEAN_ANOMALY":189.3298,"EPHEMERIS_TYPE":0,"CLASSIFICATION_TYPE":"U","NORAD_CAT_ID":57342,"ELEMENT_SET_NO":999,"REV_AT_EPOCH":577,"BSTAR":0.00061616359,"MEAN_MOTION_DOT":0.00016286,"MEAN_MOTION_DDOT":0},{"OBJECT_NAME":"STARLINK-6379","OBJECT_ID":"2023-099R","EPOCH":"2026-03-21T14:00:01.000224","MEAN_MOTION":15.09689443,"ECCENTRICITY":0.00014042,"INCLINATION":43.001,"RA_OF_ASC_NODE":184.1063,"ARG_OF_PERICENTER":312.9224,"MEAN_ANOMALY":219.4561,"EPHEMERIS_TYPE":0,"CLASSIFICATION_TYPE":"U","NORAD_CAT_ID":57343,"ELEMENT_SET_NO":999,"REV_AT_EPOCH":568,"BSTAR":0.0021950869,"MEAN_MOTION_DOT":0.0003594,"MEAN_MOTION_DDOT":0},{"OBJECT_NAME":"STARLINK-6380","OBJECT_ID":"2023-099S","EPOCH":"2026-03-21T12:00:00.999648","MEAN_MOTION":15.12628325,"ECCENTRICITY":7.965e-5,"INCLINATION":43,"RA_OF_ASC_NODE":184.2869,"ARG_OF_PERICENTER":270.1522,"MEAN_ANOMALY":287.9834,"EPHEMERIS_TYPE":0,"CLASSIFICATION_TYPE":"U","NORAD_CAT_ID":57344,"ELEMENT_SET_NO":999,"REV_AT_EPOCH":571,"BSTAR":0.0028363786,"MEAN_MOTION_DOT":0.00050571,"MEAN_MOTION_DDOT":0},{"OBJECT_NAME":"STARLINK-6373","OBJECT_ID":"2023-099T","EPOCH":"2026-03-21T14:00:01.000224","MEAN_MOTION":15.08588549,"ECCENTRICITY":9.811e-5,"INCLINATION":43.0011,"RA_OF_ASC_NODE":184.0723,"ARG_OF_PERICENTER":300.3916,"MEAN_ANOMALY":248.9768,"EPHEMERIS_TYPE":0,"CLASSIFICATION_TYPE":"U","NORAD_CAT_ID":57345,"ELEMENT_SET_NO":999,"REV_AT_EPOCH":577,"BSTAR":0.002493381,"MEAN_MOTION_DOT":0.00039654,"MEAN_MOTION_DDOT":0},{"OBJECT_NAME":"STARLINK-6359","OBJECT_ID":"2023-099U","EPOCH":"2026-03-21T14:00:01.000224","MEAN_MOTION":15.26761847,"ECCENTRICITY":0.00017563,"INCLINATION":43.0001,"RA_OF_ASC_NODE":181.7778,"ARG_OF_PERICENTER":283.4467,"MEAN_ANOMALY":158.6457,"EPHEMERIS_TYPE":0,"CLASSIFICATION_TYPE":"U","NORAD_CAT_ID":57346,"ELEMENT_SET_NO":999,"REV_AT_EPOCH":577,"BSTAR":0.0007659949,"MEAN_MOTION_DOT":0.00020357,"MEAN_MOTION_DDOT":0},{"OBJECT_NAME":"STARLINK-6378","OBJECT_ID":"2023-099V","EPOCH":"2026-03-21T12:00:00.999648","MEAN_MOTION":15.10700392,"ECCENTRICITY":0.00011961,"INCLINATION":43.0003,"RA_OF_ASC_NODE":184.3298,"ARG_OF_PERICENTER":309.5478,"MEAN_ANOMALY":228.394,"EPHEMERIS_TYPE":0,"CLASSIFICATION_TYPE":"U","NORAD_CAT_ID":57347,"ELEMENT_SET_NO":999,"REV_AT_EPOCH":586,"BSTAR":0.00097843802,"MEAN_MOTION_DOT":0.00016307,"MEAN_MOTION_DDOT":0},{"OBJECT_NAME":"STARLINK-6372","OBJECT_ID":"2023-099W","EPOCH":"2026-03-21T14:00:01.000224","MEAN_MOTION":15.25525521,"ECCENTRICITY":0.00018217,"INCLINATION":42.9991,"RA_OF_ASC_NODE":181.8497,"ARG_OF_PERICENTER":287.4104,"MEAN_ANOMALY":122.737,"EPHEMERIS_TYPE":0,"CLASSIFICATION_TYPE":"U","NORAD_CAT_ID":57348,"ELEMENT_SET_NO":999,"REV_AT_EPOCH":567,"BSTAR":0.031202676,"MEAN_MOTION_DOT":0.00867573,"MEAN_MOTION_DDOT":0},{"OBJECT_NAME":"STARLINK-6376","OBJECT_ID":"2023-099X","EPOCH":"2026-03-21T12:00:00.999648","MEAN_MOTION":15.26751398,"ECCENTRICITY":0.00012845,"INCLINATION":43.0003,"RA_OF_ASC_NODE":182.0933,"ARG_OF_PERICENTER":273.7018,"MEAN_ANOMALY":135.0832,"EPHEMERIS_TYPE":0,"CLASSIFICATION_TYPE":"U","NORAD_CAT_ID":57349,"ELEMENT_SET_NO":999,"REV_AT_EPOCH":581,"BSTAR":-0.00029630437,"MEAN_MOTION_DOT":-8.202e-5,"MEAN_MOTION_DDOT":0},{"OBJECT_NAME":"STARLINK-6362","OBJECT_ID":"2023-099Y","EPOCH":"2026-03-21T14:35:32.852832","MEAN_MOTION":15.0253987,"ECCENTRICITY":0.00013499,"INCLINATION":43.0027,"RA_OF_ASC_NODE":171.6798,"ARG_OF_PERICENTER":271.0671,"MEAN_ANOMALY":89.0017,"EPHEMERIS_TYPE":0,"CLASSIFICATION_TYPE":"U","NORAD_CAT_ID":57350,"ELEMENT_SET_NO":999,"REV_AT_EPOCH":14805,"BSTAR":6.4725463e-5,"MEAN_MOTION_DOT":6.71e-6,"MEAN_MOTION_DDOT":0},{"OBJECT_NAME":"STARLINK-6331","OBJECT_ID":"2023-099Z","EPOCH":"2026-03-21T00:19:13.872000","MEAN_MOTION":15.26747901,"ECCENTRICITY":0.0001671,"INCLINATION":43.0017,"RA_OF_ASC_NODE":184.5752,"ARG_OF_PERICENTER":284.0931,"MEAN_ANOMALY":75.9735,"EPHEMERIS_TYPE":0,"CLASSIFICATION_TYPE":"U","NORAD_CAT_ID":57351,"ELEMENT_SET_NO":999,"REV_AT_EPOCH":14785,"BSTAR":9.9219475e-5,"MEAN_MOTION_DOT":2.403e-5,"MEAN_MOTION_DDOT":0},{"OBJECT_NAME":"STARLINK-6297","OBJECT_ID":"2023-099AA","EPOCH":"2026-03-21T14:25:57.495360","MEAN_MOTION":15.02539258,"ECCENTRICITY":0.00015857,"INCLINATION":43.0025,"RA_OF_ASC_NODE":171.6295,"ARG_OF_PERICENTER":272.222,"MEAN_ANOMALY":87.8441,"EPHEMERIS_TYPE":0,"CLASSIFICATION_TYPE":"U","NORAD_CAT_ID":57352,"ELEMENT_SET_NO":999,"REV_AT_EPOCH":14805,"BSTAR":2.0293565e-5,"MEAN_MOTION_DOT":7.0e-7,"MEAN_MOTION_DDOT":0},{"OBJECT_NAME":"STARLINK-6324","OBJECT_ID":"2023-099AB","EPOCH":"2026-03-21T12:00:00.999648","MEAN_MOTION":15.26744687,"ECCENTRICITY":0.00015869,"INCLINATION":43.0003,"RA_OF_ASC_NODE":182.0481,"ARG_OF_PERICENTER":271.2668,"MEAN_ANOMALY":155.7132,"EPHEMERIS_TYPE":0,"CLASSIFICATION_TYPE":"U","NORAD_CAT_ID":57353,"ELEMENT_SET_NO":999,"REV_AT_EPOCH":581,"BSTAR":-0.00040034949,"MEAN_MOTION_DOT":-0.00010984,"MEAN_MOTION_DDOT":0},{"OBJECT_NAME":"STARLINK-6293","OBJECT_ID":"2023-099AC","EPOCH":"2026-03-21T12:37:24.320352","MEAN_MOTION":15.02550462,"ECCENTRICITY":0.00015463,"INCLINATION":43.0018,"RA_OF_ASC_NODE":171.9201,"ARG_OF_PERICENTER":254.2246,"MEAN_ANOMALY":105.8426,"EPHEMERIS_TYPE":0,"CLASSIFICATION_TYPE":"U","NORAD_CAT_ID":57354,"ELEMENT_SET_NO":999,"REV_AT_EPOCH":14804,"BSTAR":0.00020838914,"MEAN_MOTION_DOT":2.613e-5,"MEAN_MOTION_DDOT":0},{"OBJECT_NAME":"STARLINK-6276","OBJECT_ID":"2023-099AD","EPOCH":"2026-03-21T14:30:45.153792","MEAN_MOTION":15.02541209,"ECCENTRICITY":0.00014852,"INCLINATION":43.0033,"RA_OF_ASC_NODE":171.6538,"ARG_OF_PERICENTER":270.4733,"MEAN_ANOMALY":89.5939,"EPHEMERIS_TYPE":0,"CLASSIFICATION_TYPE":"U","NORAD_CAT_ID":57355,"ELEMENT_SET_NO":999,"REV_AT_EPOCH":14805,"BSTAR":7.1132121e-5,"MEAN_MOTION_DOT":7.57e-6,"MEAN_MOTION_DDOT":0},{"OBJECT_NAME":"STARLINK-6355","OBJECT_ID":"2023-099AE","EPOCH":"2026-03-21T12:35:50.054496","MEAN_MOTION":15.02544167,"ECCENTRICITY":0.00013263,"INCLINATION":43.0025,"RA_OF_ASC_NODE":171.9144,"ARG_OF_PERICENTER":278.9555,"MEAN_ANOMALY":81.1137,"EPHEMERIS_TYPE":0,"CLASSIFICATION_TYPE":"U","NORAD_CAT_ID":57356,"ELEMENT_SET_NO":999,"REV_AT_EPOCH":14804,"BSTAR":9.610054e-5,"MEAN_MOTION_DOT":1.095e-5,"MEAN_MOTION_DDOT":0},{"OBJECT_NAME":"STARLINK-5600","OBJECT_ID":"2023-099AF","EPOCH":"2026-03-21T14:22:46.282656","MEAN_MOTION":15.02526561,"ECCENTRICITY":0.00014968,"INCLINATION":43.0033,"RA_OF_ASC_NODE":171.6119,"ARG_OF_PERICENTER":265.3597,"MEAN_ANOMALY":94.7074,"EPHEMERIS_TYPE":0,"CLASSIFICATION_TYPE":"U","NORAD_CAT_ID":57357,"ELEMENT_SET_NO":999,"REV_AT_EPOCH":14805,"BSTAR":0.00015289325,"MEAN_MOTION_DOT":1.862e-5,"MEAN_MOTION_DDOT":0},{"OBJECT_NAME":"STARLINK-6299","OBJECT_ID":"2023-099AG","EPOCH":"2026-03-21T14:03:34.810848","MEAN_MOTION":15.02538731,"ECCENTRICITY":0.00012696,"INCLINATION":43.0035,"RA_OF_ASC_NODE":171.5081,"ARG_OF_PERICENTER":263.6564,"MEAN_ANOMALY":96.4134,"EPHEMERIS_TYPE":0,"CLASSIFICATION_TYPE":"U","NORAD_CAT_ID":57358,"ELEMENT_SET_NO":999,"REV_AT_EPOCH":14879,"BSTAR":5.2804886e-5,"MEAN_MOTION_DOT":5.1e-6,"MEAN_MOTION_DDOT":0}]
